[{"OBJECT_NAME":"STARLINK-3726","OBJECT_ID":"2022-029AL","EPOCH":"2026-01-04T06:29:27.593664","MEAN_MOTION":15.0884477,"ECCENTRICITY":0.00015991,"INCLINATION":53.22,"RA_OF_ASC_NODE":8.3121,"ARG_OF_PERICENTER":85.1717,"MEAN_ANOMALY":274.9458,"EPHEMERIS_TYPE":0,"CLASSIFICATION_TYPE":"U","NORAD_CAT_ID":52122,"ELEMENT_SET_NO":999,"REV_AT_EPOCH":21106,"BSTAR":3.1781817e-5,"MEAN_MOTION_DOT":2.18e-6,"MEAN_MOTION_DDOT":0},{"OBJECT_NAME":"STARLINK-3725","OBJECT_ID":"2022-029AM","EPOCH":"2026-01-04T06:58:36.322752","MEAN_MOTION":15.08851629,"ECCENTRICITY":0.00012011,"INCLINATION":53.2193,"RA_OF_ASC_NODE":358.0412,"ARG_OF_PERICENTER":105.0385,"MEAN_ANOMALY":255.0741,"EPHEMERIS_TYPE":0,"CLASSIFICATION_TYPE":"U","NORAD_CAT_ID":52123,"ELEMENT_SET_NO":999,"REV_AT_EPOCH":21121,"BSTAR":0.00015650519,"MEAN_MOTION_DOT":2.205e-5,"MEAN_MOTION_DDOT":0},{"OBJECT_NAME":"STARLINK-3727","OBJECT_ID":"2022-029AP","EPOCH":"2026-01-04T05:43:05.323584","MEAN_MOTION":15.08844771,"ECCENTRICITY":0.00015371,"INCLINATION":53.2191,"RA_OF_ASC_NODE":358.4559,"ARG_OF_PERICENTER":78.5808,"MEAN_ANOMALY":281.5356,"EPHEMERIS_TYPE":0,"CLASSIFICATION_TYPE":"U","NORAD_CAT_ID":52125,"ELEMENT_SET_NO":999,"REV_AT_EPOCH":21120,"BSTAR":9.6186574e-5,"MEAN_MOTION_DOT":1.243e-5,"MEAN_MOTION_DDOT":0},{"OBJECT_NAME":"STARLINK-3732","OBJECT_ID":"2022-029AQ","EPOCH":"2026-01-04T05:53:41.676864","MEAN_MOTION":15.08837554,"ECCENTRICITY":0.00013708,"INCLINATION":53.2199,"RA_OF_ASC_NODE":358.421,"ARG_OF_PERICENTER":98.6672,"MEAN_ANOMALY":261.4475,"EPHEMERIS_TYPE":0,"CLASSIFICATION_TYPE":"U","NORAD_CAT_ID":52126,"ELEMENT_SET_NO":999,"REV_AT_EPOCH":21119,"BSTAR":-2.4545262e-5,"MEAN_MOTION_DOT":-6.78e-6,"MEAN_MOTION_DDOT":0},{"OBJECT_NAME":"STARLINK-3715","OBJECT_ID":"2022-029AR","EPOCH":"2026-01-04T07:13:10.920576","MEAN_MOTION":15.08839651,"ECCENTRICITY":0.00013815,"INCLINATION":53.2192,"RA_OF_ASC_NODE":358.1754,"ARG_OF_PERICENTER":88.9965,"MEAN_ANOMALY":271.1185,"EPHEMERIS_TYPE":0,"CLASSIFICATION_TYPE":"U","NORAD_CAT_ID":52127,"ELEMENT_SET_NO":999,"REV_AT_EPOCH":21120,"BSTAR":8.3704174e-5,"MEAN_MOTION_DOT":1.044e-5,"MEAN_MOTION_DDOT":0},{"OBJECT_NAME":"STARLINK-3661","OBJECT_ID":"2022-029AT","EPOCH":"2026-01-04T07:02:35.264544","MEAN_MOTION":15.08825382,"ECCENTRICITY":0.00015125,"INCLINATION":53.2186,"RA_OF_ASC_NODE":358.2066,"ARG_OF_PERICENTER":86.4712,"MEAN_ANOMALY":273.6453,"EPHEMERIS_TYPE":0,"CLASSIFICATION_TYPE":"U","NORAD_CAT_ID":52129,"ELEMENT_SET_NO":999,"REV_AT_EPOCH":21121,"BSTAR":0.0002944599,"MEAN_MOTION_DOT":4.4e-5,"MEAN_MOTION_DDOT":0},{"OBJECT_NAME":"STARLINK-3711","OBJECT_ID":"2022-029AV","EPOCH":"2026-01-04T06:34:40.454112","MEAN_MOTION":15.10560843,"ECCENTRICITY":0.00043415,"INCLINATION":53.2184,"RA_OF_ASC_NODE":358.1281,"ARG_OF_PERICENTER":58.8352,"MEAN_ANOMALY":301.3067,"EPHEMERIS_TYPE":0,"CLASSIFICATION_TYPE":"U","NORAD_CAT_ID":52131,"ELEMENT_SET_NO":999,"REV_AT_EPOCH":21121,"BSTAR":0.0013121816,"MEAN_MOTION_DOT":0.00021673,"MEAN_MOTION_DDOT":0},{"OBJECT_NAME":"STARLINK-3718","OBJECT_ID":"2022-029AW","EPOCH":"2026-01-04T07:07:52.743072","MEAN_MOTION":15.08840917,"ECCENTRICITY":0.00011755,"INCLINATION":53.2195,"RA_OF_ASC_NODE":358.1904,"ARG_OF_PERICENTER":89.2661,"MEAN_ANOMALY":270.8466,"EPHEMERIS_TYPE":0,"CLASSIFICATION_TYPE":"U","NORAD_CAT_ID":52132,"ELEMENT_SET_NO":999,"REV_AT_EPOCH":21121,"BSTAR":5.9318015e-5,"MEAN_MOTION_DOT":6.56e-6,"MEAN_MOTION_DDOT":0},{"OBJECT_NAME":"STARLINK-3707","OBJECT_ID":"2022-029AX","EPOCH":"2026-01-04T06:46:40.898784","MEAN_MOTION":15.08842258,"ECCENTRICITY":0.00013218,"INCLINATION":53.2183,"RA_OF_ASC_NODE":358.2551,"ARG_OF_PERICENTER":93.0075,"MEAN_ANOMALY":267.1069,"EPHEMERIS_TYPE":0,"CLASSIFICATION_TYPE":"U","NORAD_CAT_ID":52133,"ELEMENT_SET_NO":999,"REV_AT_EPOCH":21121,"BSTAR":6.7912729e-5,"MEAN_MOTION_DOT":7.93e-6,"MEAN_MOTION_DDOT":0},{"OBJECT_NAME":"STARLINK-3721","OBJECT_ID":"2022-029AY","EPOCH":"2026-01-04T06:51:59.294880","MEAN_MOTION":15.08837184,"ECCENTRICITY":0.00013749,"INCLINATION":53.2192,"RA_OF_ASC_NODE":358.2397,"ARG_OF_PERICENTER":82.1956,"MEAN_ANOMALY":277.9193,"EPHEMERIS_TYPE":0,"CLASSIFICATION_TYPE":"U","NORAD_CAT_ID":52134,"ELEMENT_SET_NO":999,"REV_AT_EPOCH":21121,"BSTAR":8.048473e-6,"MEAN_MOTION_DOT":-1.6e-6,"MEAN_MOTION_DDOT":0},{"OBJECT_NAME":"STARLINK-3729","OBJECT_ID":"2022-029AZ","EPOCH":"2026-01-04T06:32:10.438656","MEAN_MOTION":15.08834492,"ECCENTRICITY":0.00014705,"INCLINATION":53.2196,"RA_OF_ASC_NODE":358.312,"ARG_OF_PERICENTER":93.6828,"MEAN_ANOMALY":266.4332,"EPHEMERIS_TYPE":0,"CLASSIFICATION_TYPE":"U","NORAD_CAT_ID":52135,"ELEMENT_SET_NO":999,"REV_AT_EPOCH":21121,"BSTAR":1.8031453e-5,"MEAN_MOTION_DOT":-1.0e-8,"MEAN_MOTION_DDOT":0},{"OBJECT_NAME":"STARLINK-3720","OBJECT_ID":"2022-029BA","EPOCH":"2026-01-04T06:41:23.559360","MEAN_MOTION":15.08831067,"ECCENTRICITY":9.711e-5,"INCLINATION":53.2187,"RA_OF_ASC_NODE":358.2723,"ARG_OF_PERICENTER":85.8516,"MEAN_ANOMALY":274.2587,"EPHEMERIS_TYPE":0,"CLASSIFICATION_TYPE":"U","NORAD_CAT_ID":52136,"ELEMENT_SET_NO":999,"REV_AT_EPOCH":21121,"BSTAR":4.5093805e-5,"MEAN_MOTION_DOT":4.3e-6,"MEAN_MOTION_DDOT":0},{"OBJECT_NAME":"STARLINK-3733","OBJECT_ID":"2022-029BB","EPOCH":"2026-01-04T06:25:29.623872","MEAN_MOTION":15.0883185,"ECCENTRICITY":0.00013392,"INCLINATION":53.219,"RA_OF_ASC_NODE":358.321,"ARG_OF_PERICENTER":89.7184,"MEAN_ANOMALY":270.3962,"EPHEMERIS_TYPE":0,"CLASSIFICATION_TYPE":"U","NORAD_CAT_ID":52137,"ELEMENT_SET_NO":999,"REV_AT_EPOCH":21121,"BSTAR":1.2170021e-5,"MEAN_MOTION_DOT":-9.4e-7,"MEAN_MOTION_DDOT":0},{"OBJECT_NAME":"STARLINK-3723","OBJECT_ID":"2022-029BC","EPOCH":"2026-01-04T06:36:07.724160","MEAN_MOTION":15.08717214,"ECCENTRICITY":0.00019743,"INCLINATION":53.2189,"RA_OF_ASC_NODE":358.2874,"ARG_OF_PERICENTER":83.5878,"MEAN_ANOMALY":276.5339,"EPHEMERIS_TYPE":0,"CLASSIFICATION_TYPE":"U","NORAD_CAT_ID":52138,"ELEMENT_SET_NO":999,"REV_AT_EPOCH":21121,"BSTAR":0.0014536026,"MEAN_MOTION_DOT":0.00022844,"MEAN_MOTION_DDOT":0},{"OBJECT_NAME":"STARLINK-3730","OBJECT_ID":"2022-029BD","EPOCH":"2026-01-04T04:32:53.205216","MEAN_MOTION":15.08836733,"ECCENTRICITY":0.00015467,"INCLINATION":53.2202,"RA_OF_ASC_NODE":8.6737,"ARG_OF_PERICENTER":86.7772,"MEAN_ANOMALY":273.3397,"EPHEMERIS_TYPE":0,"CLASSIFICATION_TYPE":"U","NORAD_CAT_ID":52139,"ELEMENT_SET_NO":999,"REV_AT_EPOCH":21105,"BSTAR":5.3428753e-5,"MEAN_MOTION_DOT":5.62e-6,"MEAN_MOTION_DDOT":0},{"OBJECT_NAME":"STARLINK-3682","OBJECT_ID":"2022-029BE","EPOCH":"2026-01-04T06:20:11.014368","MEAN_MOTION":15.08839049,"ECCENTRICITY":0.00013021,"INCLINATION":53.2191,"RA_OF_ASC_NODE":358.3392,"ARG_OF_PERICENTER":92.1204,"MEAN_ANOMALY":267.9938,"EPHEMERIS_TYPE":0,"CLASSIFICATION_TYPE":"U","NORAD_CAT_ID":52140,"ELEMENT_SET_NO":999,"REV_AT_EPOCH":21121,"BSTAR":3.1528841e-5,"MEAN_MOTION_DOT":2.14e-6,"MEAN_MOTION_DDOT":0},{"OBJECT_NAME":"STARLINK-3761","OBJECT_ID":"2022-041B","EPOCH":"2026-01-04T06:14:53.507328","MEAN_MOTION":15.08822279,"ECCENTRICITY":0.0001402,"INCLINATION":53.2202,"RA_OF_ASC_NODE":38.3093,"ARG_OF_PERICENTER":102.2061,"MEAN_ANOMALY":257.9088,"EPHEMERIS_TYPE":0,"CLASSIFICATION_TYPE":"U","NORAD_CAT_ID":52262,"ELEMENT_SET_NO":999,"REV_AT_EPOCH":20463,"BSTAR":-0.00011459968,"MEAN_MOTION_DOT":-2.11e-5,"MEAN_MOTION_DDOT":0},{"OBJECT_NAME":"STARLINK-3786","OBJECT_ID":"2022-041C","EPOCH":"2026-01-04T06:20:11.808384","MEAN_MOTION":15.08826302,"ECCENTRICITY":0.00014578,"INCLINATION":53.221,"RA_OF_ASC_NODE":38.3402,"ARG_OF_PERICENTER":93.802,"MEAN_ANOMALY":266.3139,"EPHEMERIS_TYPE":0,"CLASSIFICATION_TYPE":"U","NORAD_CAT_ID":52263,"ELEMENT_SET_NO":999,"REV_AT_EPOCH":20463,"BSTAR":6.1281051e-5,"MEAN_MOTION_DOT":6.87e-6,"MEAN_MOTION_DDOT":0},{"OBJECT_NAME":"STARLINK-3795","OBJECT_ID":"2022-041D","EPOCH":"2026-01-03T19:01:54.164928","MEAN_MOTION":15.08830929,"ECCENTRICITY":0.00014921,"INCLINATION":53.2205,"RA_OF_ASC_NODE":40.4563,"ARG_OF_PERICENTER":102.2518,"MEAN_ANOMALY":257.8642,"EPHEMERIS_TYPE":0,"CLASSIFICATION_TYPE":"U","NORAD_CAT_ID":52264,"ELEMENT_SET_NO":999,"REV_AT_EPOCH":20456,"BSTAR":-3.4505704e-5,"MEAN_MOTION_DOT":-8.37e-6,"MEAN_MOTION_DDOT":0},{"OBJECT_NAME":"STARLINK-3740","OBJECT_ID":"2022-041E","EPOCH":"2026-01-04T06:04:17.677632","MEAN_MOTION":15.08829183,"ECCENTRICITY":0.00014503,"INCLINATION":53.2195,"RA_OF_ASC_NODE":38.3886,"ARG_OF_PERICENTER":95.6368,"MEAN_ANOMALY":264.479,"EPHEMERIS_TYPE":0,"CLASSIFICATION_TYPE":"U","NORAD_CAT_ID":52265,"ELEMENT_SET_NO":999,"REV_AT_EPOCH":20463,"BSTAR":3.1794314e-5,"MEAN_MOTION_DOT":2.18e-6,"MEAN_MOTION_DDOT":0},{"OBJECT_NAME":"STARLINK-3739","OBJECT_ID":"2022-041F","EPOCH":"2026-01-04T05:58:59.669472","MEAN_MOTION":15.08835319,"ECCENTRICITY":0.00014401,"INCLINATION":53.2197,"RA_OF_ASC_NODE":38.4042,"ARG_OF_PERICENTER":93.7941,"MEAN_ANOMALY":266.3216,"EPHEMERIS_TYPE":0,"CLASSIFICATION_TYPE":"U","NORAD_CAT_ID":52266,"ELEMENT_SET_NO":999,"REV_AT_EPOCH":20463,"BSTAR":2.3606833e-5,"MEAN_MOTION_DOT":8.8e-7,"MEAN_MOTION_DDOT":0},{"OBJECT_NAME":"STARLINK-3748","OBJECT_ID":"2022-041G","EPOCH":"2026-01-04T07:29:05.141184","MEAN_MOTION":15.0883404,"ECCENTRICITY":0.00013198,"INCLINATION":53.2192,"RA_OF_ASC_NODE":38.1306,"ARG_OF_PERICENTER":89.904,"MEAN_ANOMALY":270.2103,"EPHEMERIS_TYPE":0,"CLASSIFICATION_TYPE":"U","NORAD_CAT_ID":52267,"ELEMENT_SET_NO":999,"REV_AT_EPOCH":20464,"BSTAR":-4.3092765e-5,"MEAN_MOTION_DOT":-9.74e-6,"MEAN_MOTION_DDOT":0},{"OBJECT_NAME":"STARLINK-3746","OBJECT_ID":"2022-041H","EPOCH":"2026-01-04T07:02:33.895968","MEAN_MOTION":15.08841294,"ECCENTRICITY":0.00014614,"INCLINATION":53.2194,"RA_OF_ASC_NODE":38.1276,"ARG_OF_PERICENTER":110.0861,"MEAN_ANOMALY":250.0288,"EPHEMERIS_TYPE":0,"CLASSIFICATION_TYPE":"U","NORAD_CAT_ID":52268,"ELEMENT_SET_NO":999,"REV_AT_EPOCH":20464,"BSTAR":-2.7461296e-5,"MEAN_MOTION_DOT":-7.25e-6,"MEAN_MOTION_DDOT":0}]
